FENGYUN 1C DEB          
1 29845U 99025EP  17345.74899788  .00000171  00000-0  95087-4 0  9995
2 29845  98.7085  18.1642 0082862 340.9250  81.3531 14.21468317565484
